CCSDS_OMM_VERS = 2.0
CREATION_DATE  = 
ORIGINATOR     = 

OBJECT_NAME    = OKEAN-3
OBJECT_ID      = 1991-039A
CENTER_NAME    = EARTH
REF_FRAME      = TEME
TIME_SYSTEM    = UTC
MEAN_ELEMENT_THEORY = SGP/SGP4

EPOCH          = 2025-11-19T19:05:32.644608
MEAN_MOTION    = 15.03897158
ECCENTRICITY   = .00141944
INCLINATION    = 82.5163
RA_OF_ASC_NODE = 83.2489
ARG_OF_PERICENTER = 350.8090
MEAN_ANOMALY   = 9.2874

EPHEMERIS_TYPE = 0
CLASSIFICATION_TYPE = U
NORAD_CAT_ID   = 21397
ELEMENT_SET_NO = 999
REV_AT_EPOCH   = 84851
BSTAR          = .24201577E-3
MEAN_MOTION_DOT = .3367E-4
MEAN_MOTION_DDOT = 0

CCSDS_OMM_VERS = 2.0
CREATION_DATE  = 
ORIGINATOR     = 

OBJECT_NAME    = COSMOS 2151
OBJECT_ID      = 1991-042A
CENTER_NAME    = EARTH
REF_FRAME      = TEME
TIME_SYSTEM    = UTC
MEAN_ELEMENT_THEORY = SGP/SGP4

EPOCH          = 2025-11-19T20:52:46.354080
MEAN_MOTION    = 14.99571709
ECCENTRICITY   = .00141093
INCLINATION    = 82.4978
RA_OF_ASC_NODE = 189.5385
ARG_OF_PERICENTER = 71.7530
MEAN_ANOMALY   = 288.5228

EPHEMERIS_TYPE = 0
CLASSIFICATION_TYPE = U
NORAD_CAT_ID   = 21422
ELEMENT_SET_NO = 999
REV_AT_EPOCH   = 84673
BSTAR          = .14909518E-3
MEAN_MOTION_DOT = .1863E-4
MEAN_MOTION_DDOT = 0

CCSDS_OMM_VERS = 2.0
CREATION_DATE  = 
ORIGINATOR     = 

OBJECT_NAME    = SL-14 R/B
OBJECT_ID      = 1991-042B
CENTER_NAME    = EARTH
REF_FRAME      = TEME
TIME_SYSTEM    = UTC
MEAN_ELEMENT_THEORY = SGP/SGP4

EPOCH          = 2025-11-19T11:36:49.336704
MEAN_MOTION    = 14.81708611
ECCENTRICITY   = .00156457
INCLINATION    = 82.4915
RA_OF_ASC_NODE = 323.5344
ARG_OF_PERICENTER = 240.7275
MEAN_ANOMALY   = 119.2376

EPHEMERIS_TYPE = 0
CLASSIFICATION_TYPE = U
NORAD_CAT_ID   = 21423
ELEMENT_SET_NO = 999
REV_AT_EPOCH   = 83675
BSTAR          = .67441842E-4
MEAN_MOTION_DOT = .555E-5
MEAN_MOTION_DDOT = 0

CCSDS_OMM_VERS = 2.0
CREATION_DATE  = 
ORIGINATOR     = 

OBJECT_NAME    = ERS-1
OBJECT_ID      = 1991-050A
CENTER_NAME    = EARTH
REF_FRAME      = TEME
TIME_SYSTEM    = UTC
MEAN_ELEMENT_THEORY = SGP/SGP4

EPOCH          = 2025-11-19T19:07:18.530400
MEAN_MOTION    = 14.39339873
ECCENTRICITY   = .00322413
INCLINATION    = 98.7915
RA_OF_ASC_NODE = 334.2765
ARG_OF_PERICENTER = 166.5439
MEAN_ANOMALY   = 193.6615

EPHEMERIS_TYPE = 0
CLASSIFICATION_TYPE = U
NORAD_CAT_ID   = 21574
ELEMENT_SET_NO = 999
REV_AT_EPOCH   = 79992
BSTAR          = .13918874E-3
MEAN_MOTION_DOT = .389E-5
MEAN_MOTION_DDOT = 0

CCSDS_OMM_VERS = 2.0
CREATION_DATE  = 
ORIGINATOR     = 

OBJECT_NAME    = ARIANE 40 R/B
OBJECT_ID      = 1991-050F
CENTER_NAME    = EARTH
REF_FRAME      = TEME
TIME_SYSTEM    = UTC
MEAN_ELEMENT_THEORY = SGP/SGP4

EPOCH          = 2025-11-19T21:37:20.301024
MEAN_MOTION    = 14.42786072
ECCENTRICITY   = .00040376
INCLINATION    = 98.2199
RA_OF_ASC_NODE = 15.1526
ARG_OF_PERICENTER = 60.4908
MEAN_ANOMALY   = 299.6685

EPHEMERIS_TYPE = 0
CLASSIFICATION_TYPE = U
NORAD_CAT_ID   = 21610
ELEMENT_SET_NO = 999
REV_AT_EPOCH   = 80316
BSTAR          = .13454248E-3
MEAN_MOTION_DOT = .407E-5
MEAN_MOTION_DDOT = 0

CCSDS_OMM_VERS = 2.0
CREATION_DATE  = 
ORIGINATOR     = 

OBJECT_NAME    = INTERCOSMOS 25
OBJECT_ID      = 1991-086A
CENTER_NAME    = EARTH
REF_FRAME      = TEME
TIME_SYSTEM    = UTC
MEAN_ELEMENT_THEORY = SGP/SGP4

EPOCH          = 2025-11-19T20:21:30.570336
MEAN_MOTION    = 12.11627334
ECCENTRICITY   = .14878073
INCLINATION    = 82.6084
RA_OF_ASC_NODE = 16.4153
ARG_OF_PERICENTER = 353.7546
MEAN_ANOMALY   = 4.6632

EPHEMERIS_TYPE = 0
CLASSIFICATION_TYPE = U
NORAD_CAT_ID   = 21819
ELEMENT_SET_NO = 999
REV_AT_EPOCH   = 48338
BSTAR          = .29821034E-3
MEAN_MOTION_DOT = .1522E-4
MEAN_MOTION_DDOT = 0

CCSDS_OMM_VERS = 2.0
CREATION_DATE  = 
ORIGINATOR     = 

OBJECT_NAME    = SL-8 R/B
OBJECT_ID      = 1992-008B
CENTER_NAME    = EARTH
REF_FRAME      = TEME
TIME_SYSTEM    = UTC
MEAN_ELEMENT_THEORY = SGP/SGP4

EPOCH          = 2025-11-19T20:50:42.210240
MEAN_MOTION    = 13.75951869
ECCENTRICITY   = .00361068
INCLINATION    = 82.9274
RA_OF_ASC_NODE = 349.4597
ARG_OF_PERICENTER = 81.9455
MEAN_ANOMALY   = 91.0263

EPHEMERIS_TYPE = 0
CLASSIFICATION_TYPE = U
NORAD_CAT_ID   = 21876
ELEMENT_SET_NO = 999
REV_AT_EPOCH   = 69431
BSTAR          = .12500915E-3
MEAN_MOTION_DOT = .137E-5
MEAN_MOTION_DDOT = 0

CCSDS_OMM_VERS = 2.0
CREATION_DATE  = 
ORIGINATOR     = 

OBJECT_NAME    = SL-8 R/B
OBJECT_ID      = 1992-020B
CENTER_NAME    = EARTH
REF_FRAME      = TEME
TIME_SYSTEM    = UTC
MEAN_ELEMENT_THEORY = SGP/SGP4

EPOCH          = 2025-11-19T16:53:44.685024
MEAN_MOTION    = 13.75522941
ECCENTRICITY   = .00277065
INCLINATION    = 82.9316
RA_OF_ASC_NODE = 235.4213
ARG_OF_PERICENTER = 244.1476
MEAN_ANOMALY   = 149.7090

EPHEMERIS_TYPE = 0
CLASSIFICATION_TYPE = U
NORAD_CAT_ID   = 21938
ELEMENT_SET_NO = 999
REV_AT_EPOCH   = 68601
BSTAR          = .76179823E-4
MEAN_MOTION_DOT = .88E-6
MEAN_MOTION_DDOT = 0

CCSDS_OMM_VERS = 2.0
CREATION_DATE  = 
ORIGINATOR     = 

OBJECT_NAME    = USA 81
OBJECT_ID      = 1992-023A
CENTER_NAME    = EARTH
REF_FRAME      = TEME
TIME_SYSTEM    = UTC
MEAN_ELEMENT_THEORY = SGP/SGP4

EPOCH          = 2025-11-19T21:50:55.941216
MEAN_MOTION    = 14.32315460
ECCENTRICITY   = .00024223
INCLINATION    = 85.0103
RA_OF_ASC_NODE = 194.7403
ARG_OF_PERICENTER = 70.2364
MEAN_ANOMALY   = 289.9089

EPHEMERIS_TYPE = 0
CLASSIFICATION_TYPE = U
NORAD_CAT_ID   = 21949
ELEMENT_SET_NO = 999
REV_AT_EPOCH   = 7907
BSTAR          = .73599855E-4
MEAN_MOTION_DOT = .219E-5
MEAN_MOTION_DDOT = 0

CCSDS_OMM_VERS = 2.0
CREATION_DATE  = 
ORIGINATOR     = 

OBJECT_NAME    = COSMOS 2219
OBJECT_ID      = 1992-076A
CENTER_NAME    = EARTH
REF_FRAME      = TEME
TIME_SYSTEM    = UTC
MEAN_ELEMENT_THEORY = SGP/SGP4

EPOCH          = 2025-11-19T19:19:20.200224
MEAN_MOTION    = 14.14067607
ECCENTRICITY   = .00181405
INCLINATION    = 71.0609
RA_OF_ASC_NODE = 247.7723
ARG_OF_PERICENTER = 359.5423
MEAN_ANOMALY   = 0.5680

EPHEMERIS_TYPE = 0
CLASSIFICATION_TYPE = U
NORAD_CAT_ID   = 22219
ELEMENT_SET_NO = 999
REV_AT_EPOCH   = 70284
BSTAR          = -.2538234E-4
MEAN_MOTION_DOT = -.95E-6
MEAN_MOTION_DDOT = 0

CCSDS_OMM_VERS = 2.0
CREATION_DATE  = 
ORIGINATOR     = 

OBJECT_NAME    = SL-16 R/B
OBJECT_ID      = 1992-076B
CENTER_NAME    = EARTH
REF_FRAME      = TEME
TIME_SYSTEM    = UTC
MEAN_ELEMENT_THEORY = SGP/SGP4

EPOCH          = 2025-11-19T17:15:23.691744
MEAN_MOTION    = 14.16835471
ECCENTRICITY   = .00152139
INCLINATION    = 71.0010
RA_OF_ASC_NODE = 60.0227
ARG_OF_PERICENTER = 263.9661
MEAN_ANOMALY   = 247.3219

EPHEMERIS_TYPE = 0
CLASSIFICATION_TYPE = U
NORAD_CAT_ID   = 22220
ELEMENT_SET_NO = 999
REV_AT_EPOCH   = 70625
BSTAR          = -.16973743E-4
MEAN_MOTION_DOT = -.82E-6
MEAN_MOTION_DDOT = 0

CCSDS_OMM_VERS = 2.0
CREATION_DATE  = 
ORIGINATOR     = 

OBJECT_NAME    = COSMOS 2221
OBJECT_ID      = 1992-080A
CENTER_NAME    = EARTH
REF_FRAME      = TEME
TIME_SYSTEM    = UTC
MEAN_ELEMENT_THEORY = SGP/SGP4

EPOCH          = 2025-11-19T06:27:13.935456
MEAN_MOTION    = 14.95637067
ECCENTRICITY   = .00141619
INCLINATION    = 82.5067
RA_OF_ASC_NODE = 24.7864
ARG_OF_PERICENTER = 197.8319
MEAN_ANOMALY   = 162.2407

EPHEMERIS_TYPE = 0
CLASSIFICATION_TYPE = U
NORAD_CAT_ID   = 22236
ELEMENT_SET_NO = 999
REV_AT_EPOCH   = 76428
BSTAR          = .20999437E-3
MEAN_MOTION_DOT = .2362E-4
MEAN_MOTION_DDOT = 0

