OKEAN-3                 
1 21397U 91039A   25323.79551672  .00003367  00000+0  24202-3 0  9992
2 21397  82.5163  83.2489 0014194 350.8090   9.2874 15.03897158848510
COSMOS 2151             
1 21422U 91042A   25323.86998095  .00001863  00000+0  14910-3 0  9991
2 21422  82.4978 189.5385 0014109  71.7530 288.5228 14.99571709846733
SL-14 R/B               
1 21423U 91042B   25323.48390436  .00000555  00000+0  67442-4 0  9991
2 21423  82.4915 323.5344 0015645 240.7275 119.2376 14.81708611836750
ERS-1                   
1 21574U 91050A   25323.79674225  .00000389  00000+0  13919-3 0  9996
2 21574  98.7915 334.2765 0032241 166.5439 193.6615 14.39339873799923
ARIANE 40 R/B           
1 21610U 91050F   25323.90092941  .00000407  00000+0  13454-3 0  9994
2 21610  98.2199  15.1526 0004037  60.4908 299.6685 14.42786072803165
INTERCOSMOS 25          
1 21819U 91086A   25323.84827049  .00001522  00000+0  29821-3 0  9996
2 21819  82.6084  16.4153 1487807 353.7546   4.6632 12.11627334483386
SL-8 R/B                
1 21876U 92008B   25323.86854410  .00000137  00000+0  12501-3 0  9996
2 21876  82.9274 349.4597 0036106  81.9455  91.0263 13.75951869694315
SL-8 R/B                
1 21938U 92020B   25323.70398941  .00000088  00000+0  76180-4 0  9993
2 21938  82.9316 235.4213 0027706 244.1476 149.7090 13.75522941686014
USA 81                  
1 21949U 92023A   25323.91036969  .00000219  00000+0  73600-4 0  9990
2 21949  85.0103 194.7403 0002422  70.2364 289.9089 14.32315460 79071
COSMOS 2219             
1 22219U 92076A   25323.80509491 -.00000095  00000+0 -25382-4 0  9990
2 22219  71.0609 247.7723 0018140 359.5423   0.5680 14.14067607702844
SL-16 R/B               
1 22220U 92076B   25323.71902421 -.00000082  00000+0 -16974-4 0  9995
2 22220  71.0010  60.0227 0015213 263.9661 247.3219 14.16835471706259
COSMOS 2221             
1 22236U 92080A   25323.26891129  .00002362  00000+0  20999-3 0  9991
2 22236  82.5067  24.7864 0014161 197.8319 162.2407 14.95637067764284
